[{"OBJECT_NAME":"STARLINK-32507","OBJECT_ID":"2024-222U","EPOCH":"2026-03-09T13:23:25.500192","MEAN_MOTION":15.27593585,"ECCENTRICITY":0.000155,"INCLINATION":43.0013,"RA_OF_ASC_NODE":136.5179,"ARG_OF_PERICENTER":284.621,"MEAN_ANOMALY":75.447,"EPHEMERIS_TYPE":0,"CLASSIFICATION_TYPE":"U","NORAD_CAT_ID":62132,"ELEMENT_SET_NO":999,"REV_AT_EPOCH":7258,"BSTAR":0.0012123,"MEAN_MOTION_DOT":0.00033261,"MEAN_MOTION_DDOT":0},{"OBJECT_NAME":"FLOCK 4G-25","OBJECT_ID":"2025-009AP","EPOCH":"2026-03-09T17:53:50.680608","MEAN_MOTION":15.27424196,"ECCENTRICITY":8.276e-5,"INCLINATION":97.4049,"RA_OF_ASC_NODE":151.4141,"ARG_OF_PERICENTER":316.3151,"MEAN_ANOMALY":43.8023,"EPHEMERIS_TYPE":0,"CLASSIFICATION_TYPE":"U","NORAD_CAT_ID":62646,"ELEMENT_SET_NO":999,"REV_AT_EPOCH":6373,"BSTAR":0.00038902475,"MEAN_MOTION_DOT":0.00010373,"MEAN_MOTION_DDOT":0}]
